TITAN 4B R/B            
1 26474U 00047B   22158.55150270  .00000775  00000+0  76471-4 0  9994
2 26474  67.9935 252.7736 0051418 129.0202 231.5535 14.96824680186963
ENVISAT                 
1 27386U 02009A   22158.51486806  .00000084  00000+0  41251-4 0  9991
2 27386  98.1829 140.0888 0001292  88.6863  21.4047 14.38128857 62033
IDEFIX & ARIANE 42P R/B 
1 27422U 02021B   22158.57735974  .00000090  00000+0  51823-4 0  9998
2 27422  98.4492 104.8708 0010899 266.2847  93.7089 14.29415616 48046
AQUA                    
1 27424U 02022A   22158.54252125  .00000314  00000+0  79552-4 0  9998
2 27424  98.2473 100.5269 0000890  77.5748  10.0699 14.57291517 68744
CZ-4B R/B               
1 27432U 02024C   22158.50435223 -.00000007  00000+0  20625-4 0  9994
2 27432  99.0619 183.4720 0049499 305.5822 225.8811 14.14140944 35411
MIDORI II (ADEOS-II)    
1 27597U 02056A   22158.45242407  .00000091  00000+0  54551-4 0  9992
2 27597  98.6065 102.4752 0002107  67.2562 292.8842 14.27610324 14544
H-2A R/B                
1 27601U 02056E   22158.51101168  .00000054  00000+0  34350-4 0  9997
2 27601  98.1763 165.7236 0070712 291.4132 220.6644 14.32073307 17755
CZ-4B R/B               
1 28059U 03049C   22158.38820012  .00000134  00000+0  43643-4 0  9993
2 28059  98.5201  95.0350 0051237  97.8830 262.8186 14.52782919987359
CZ-2C R/B               
1 28222U 04012C   22158.49202322  .00002241  00000+0  12934-3 0  9995
2 28222  97.7711 139.1504 0046920  86.8543  28.1962 15.12511905994727
SL-16 R/B               
1 28353U 04021B   22158.45212433  .00000265  00000+0  16379-3 0  9991
2 28353  71.0004 229.2572 0006392 306.9533  53.1004 14.14264744928934
CZ-4B R/B               
1 28415U 04035C   22158.36821715  .00001264  00000+0  83724-4 0  9993
2 28415  97.5168 199.0414 0051521  55.5390 305.0691 15.08060784972075
CZ-2C R/B               
1 28480U 04046B   22158.43622398  .00000043  00000+0  31882-4 0  9993
2 28480  98.0639 146.9831 0140426 251.7866 106.7987 14.25830586913017
ARIANE 5 R/B            
1 28499U 04049H   22158.59476176  .00000384  00000+0  53909-4 0  9996
2 28499  98.0962 275.2508 0092861 106.1745 265.4549 14.80415129942620
CZ-2D R/B               
1 28738U 05024B   22158.49264319  .00001833  00000+0  10500-3 0  9998
2 28738  97.3514 166.9577 0010565 203.8730 156.2013 15.13776835930264
SUZAKU (ASTRO-EII)      
1 28773U 05025A   22158.26909464  .00003567  00000+0  15254-3 0  9997
2 28773  31.3814   8.5193 0004293 269.0273  90.9883 15.21021177933472
ALOS (DAICHI)           
1 28931U 06002A   22158.46152434  .00000451  00000+0  96307-4 0  9996
2 28931  97.9353 123.6920 0001809  39.8176 320.3146 14.63180030872963
H-2A R/B                
1 28932U 06002B   22158.54573891  .00001588  00000+0  14608-3 0  9995
2 28932  98.2918 200.4903 0087972 124.0752 236.8856 14.93474026888568
AKARI (ASTRO-F)         
1 28939U 06005A   22158.15815738  .00013345  00000+0  25320-3 0  9998
2 28939  98.1955 230.1504 0069098 312.8614  46.6841 15.45817148891519
RESURS-DK 1             
1 29228U 06021A   22158.36972080  .00000544  00000+0  47317-4 0  9993
2 29228  69.9336 154.7149 0001523  52.1900 307.9399 15.03216997880863
GENESIS 1               
1 29252U 06029A   22158.40037759  .00002285  00000+0  10874-3 0  9999
2 29252  64.5211 104.1115 0059371 263.9155  95.5202 15.20608565877441
CZ-4B R/B               
1 29507U 06046C   22158.54436726  .00000745  00000+0  60930-4 0  9991
2 29507  97.7319 188.6826 0044635 261.4002  98.2164 15.01780282853388
CZ-2C R/B               
1 31114U 07010B   22158.47453124  .00000098  00000+0  64463-4 0  9999
2 31114  98.2402 332.2913 0058982 328.0988  31.6623 14.19432292785143
COSMO-SKYMED 1          
1 31598U 07023A   22158.47778496  .00000417  00000+0  58914-4 0  9990
2 31598  97.8883 342.2835 0001463  93.8306 266.3098 14.82152624811482
GENESIS 2               
1 31789U 07028A   22158.39973360  .00002448  00000+0  12142-3 0  9993
2 31789  64.4947 147.2673 0047179 316.5273  43.2134 15.19494933824378
COSMOS 2428             
1 31792U 07029A   22158.57580221  .00000292  00000+0  18377-3 0  9999
2 31792  70.9461 200.4963 0004705  60.0849 300.0739 14.12556725770451
SL-16 R/B               
1 31793U 07029B   22158.49703368 -.00000263  00000+0 -11237-3 0  9998
2 31793  70.9733 173.7794 0002882 271.1793 198.7461 14.14476431771457
KORONAS-FOTON           
1 33504U 09003A   22158.50361934  .00001425  00000+0  69991-4 0  9995
2 33504  82.4422 225.8337 0016983 308.4827  51.4882 15.17154822736457
H-2A R/B                
1 38341U 12025E   22158.50038905  .00000579  00000+0  73970-4 0  9997
2 38341  98.5064  13.1087 0056075  79.0396 281.7118 14.84703755544173
CUSAT 2 & FALCON 9 R/B  
1 39271U 13055G   22158.41032026  .00019246  00000+0  41598-3 0  9993
2 39271  80.9575 206.2209 0532234 147.8125 215.6778 14.62156453455306
CZ-2C R/B               
1 39364U 13059B   22158.42127677  .00005094  00000+0  16621-3 0  9993
2 39364  97.1605 212.0867 0042751  10.5552 349.6577 15.31321169478673
SL-4 R/B                
1 39679U 14021B   22158.56931716  .00000753  00000+0  52155-4 0  9994
2 39679  51.6175   1.9937 0164549 284.0022  74.2702 15.08623020447629
ALOS-2                  
1 39766U 14029A   22158.53047946 -.00000014  00000+0  50457-5 0  9994
2 39766  97.9212 255.8018 0001526  85.7169 274.4227 14.79470793434169
CZ-2C R/B               
1 40306U 14071B   22158.44183417  .00027897  00000+0  32431-3 0  9994
2 40306  97.4170 131.6249 0012716  62.7676 297.4875 15.61606102425337
SL-27 R/B               
1 40354U 14084B   22158.56816365  .00004498  00000+0  98355-4 0  9999
2 40354  74.7377 335.7904 0034512 161.5883 198.6590 15.43782089419077
YAOGAN-29               
1 41038U 15069A   22158.48280456  .00000174  00000+0  29463-4 0  9991
2 41038  98.0549 158.6261 0002226 105.7559 254.3904 14.80862500352816
ASTRO-H (HITOMI)        
1 41337U 16012A   22158.28010276  .00000773  00000+0  54798-4 0  9995
2 41337  31.0041 124.2860 0012178 345.8483  14.1810 14.99387957345599
HXMT (HUIYAN)           
1 42758U 17034A   22158.17368241  .00001470  00000+0  10114-3 0  9992
2 42758  43.0183  44.8657 0009268 224.0742 272.3398 15.10405890274625
CZ-2C R/B               
1 43521U 18054D   22158.44150186  .00002605  00000+0  13532-3 0  9999
2 43521  35.1539  58.3828 0079412 353.7305   6.2412 15.13089829218165
AEOLUS                  
1 43600U 18066A   22158.53432376  .00074640  00000+0  29254-3 0  9990
2 43600  96.7026 164.6157 0009019  94.7993 265.4310 15.86708165219555
SAOCOM 1A               
1 43641U 18076A   22158.48620259  .00000163  00000+0  27087-4 0  9991
2 43641  97.8882 345.3277 0001395  81.3623 278.7756 14.82154424198256
SAOCOM 1B               
1 46265U 20059A   22158.51742292  .00000102  00000+0  19428-4 0  9999
2 46265  97.8878 344.4324 0001425  83.4302 276.7074 14.82147834 95658
TIANHE                  
1 48274U 21035A   22158.54790191  .00002735  00000+0  37010-4 0  9991
2 48274  41.4720 277.5323 0004464 233.0903 231.4164 15.59945075 63260
